ProjectRegion,Site Code,siteid,sitename,stationid,habitatid,length,offshoreDepth,latDD,lonDD,latDeg,latMin,lonDeg,lonMin
FKNMS,9P4,33,Admiral,331,P,25,6,25.0447,-80.3948,25,2.682,-80,23.688
FKNMS,9P4,33,Admiral,332,P,21,4,25.0447,-80.3948,25,2.682,-80,23.688
FKNMS,9P4,33,Admiral,333,P,23,5,25.0447,-80.3948,25,2.682,-80,23.688
FKNMS,9P4,33,Admiral,334,P,23,3,25.0447,-80.3948,25,2.682,-80,23.688
FKNMS,7D1,74,Alligator Deep,741,OD,22,37,24.8452,-80.6209,24,50.712,-80,37.254
FKNMS,7D1,74,Alligator Deep,742,OD,22,38,24.8452,-80.6209,24,50.712,-80,37.254
FKNMS,7D1,74,Alligator Deep,743,OD,24,38,24.8452,-80.6209,24,50.712,-80,37.254
FKNMS,7D1,74,Alligator Deep,744,OD,23,36,24.8452,-80.6209,24,50.712,-80,37.254
FKNMS,7S1,54,Alligator Shallow,541,OS,22,16,24.8457,-80.624,24,50.742,-80,37.44
FKNMS,7S1,54,Alligator Shallow,542,OS,22,16,24.8457,-80.624,24,50.742,-80,37.44
FKNMS,7S1,54,Alligator Shallow,543,OS,22,10,24.8468,-80.6227,24,50.808,-80,37.362
FKNMS,7S1,54,Alligator Shallow,544,OS,22,11,24.8468,-80.6227,24,50.808,-80,37.362
NPSDT/FKNMS,1D1,82,Bird Key Reef,821,OD,22,45,24.6117,-82.8702,24,36.702,-82,52.212
NPSDT/FKNMS,1D1,82,Bird Key Reef,822,OD,22,40,24.6117,-82.8702,24,36.702,-82,52.212
NPSDT/FKNMS,1D1,82,Bird Key Reef,823,OD,23,43,24.6117,-82.8702,24,36.702,-82,52.212
NPSDT/FKNMS,1D1,82,Bird Key Reef,824,OD,25,45,24.6117,-82.8702,24,36.702,-82,52.212
FKNMS,1D2,83,Black Coral Rock,831,OD,19,71,24.6993,-83.0022,24,41.958,-83,0.132
FKNMS,1D2,83,Black Coral Rock,832,OD,19,70,24.6993,-83.0022,24,41.958,-83,0.132
FKNMS,1D2,83,Black Coral Rock,833,OD,20,71,24.6993,-83.0022,24,41.958,-83,0.132
FKNMS,1D2,83,Black Coral Rock,834,OD,20,71,24.6993,-83.0022,24,41.958,-83,0.132
SECREMP,BC1,87,Broward County 1,871,1R,22,25,26.1479,-80.0959,26,8.874,-80,5.754
SECREMP,BC1,87,Broward County 1,872,1R,22,25,26.1479,-80.0959,26,8.874,-80,5.754
SECREMP,BC1,87,Broward County 1,873,1R,22,25,26.1479,-80.0959,26,8.874,-80,5.754
SECREMP,BC1,87,Broward County 1,874,1R,22,25,26.1479,-80.0959,26,8.874,-80,5.754
SECREMP,BC2,88,Broward County 2,881,2R,22,40,26.1599,-80.0825,26,9.594,-80,4.95
SECREMP,BC2,88,Broward County 2,882,2R,22,40,26.1599,-80.0825,26,9.594,-80,4.95
SECREMP,BC2,88,Broward County 2,883,2R,22,40,26.1599,-80.0825,26,9.594,-80,4.95
SECREMP,BC2,88,Broward County 2,884,2R,22,40,26.1599,-80.0825,26,9.594,-80,4.95
SECREMP,BC3,89,Broward County 3,891,3R,22,55,26.1586,-80.0773,26,9.516,-80,4.638
SECREMP,BC3,89,Broward County 3,892,3R,22,55,26.1586,-80.0773,26,9.516,-80,4.638
SECREMP,BC3,89,Broward County 3,893,3R,22,55,26.1586,-80.0773,26,9.516,-80,4.638
SECREMP,BC3,89,Broward County 3,894,3R,22,55,26.1586,-80.0773,26,9.516,-80,4.638
SECREMP,BC4,1,Broward County 4,11,1R,22,25,26.1494,-80.0894,26,8.964,-80,5.364
SECREMP,BC4,1,Broward County 4,12,1R,22,25,26.1494,-80.0894,26,8.964,-80,5.364
SECREMP,BC4,1,Broward County 4,13,1R,22,25,26.1494,-80.0894,26,8.964,-80,5.364
SECREMP,BC4,1,Broward County 4,14,1R,22,25,26.1494,-80.0894,26,8.964,-80,5.364
SECREMP,BC5,2,Broward County 5,21,2R,22,45,26.3019,-80.0682,26,18.114,-80,4.092
SECREMP,BC5,2,Broward County 5,22,2R,22,45,26.3019,-80.0682,26,18.114,-80,4.092
SECREMP,BC5,2,Broward County 5,23,2R,22,45,26.3019,-80.0682,26,18.114,-80,4.092
SECREMP,BC5,2,Broward County 5,24,2R,22,45,26.3019,-80.0682,26,18.114,-80,4.092
SECREMP,BC6,3,Broward County 6,31,3R,22,55,26.3011,-80.0609,26,18.066,-80,3.654
SECREMP,BC6,3,Broward County 6,32,3R,22,55,26.3011,-80.0609,26,18.066,-80,3.654
SECREMP,BC6,3,Broward County 6,33,3R,22,55,26.3011,-80.0609,26,18.066,-80,3.654
SECREMP,BC6,3,Broward County 6,34,3R,22,55,26.3011,-80.0609,26,18.066,-80,3.654
SECREMP,BCA,90,Broward County A,901,NS,22,25,26.1498,-80.0968,26,8.988,-80,5.808
SECREMP,BCA,90,Broward County A,902,NS,22,25,26.1498,-80.0968,26,8.988,-80,5.808
SECREMP,BCA,90,Broward County A,903,NS,22,25,26.1498,-80.0968,26,8.988,-80,5.808
SECREMP,BCA,90,Broward County A,904,NS,22,25,26.1498,-80.0968,26,8.988,-80,5.808
FKNMS,9P6,22,Burr Fish,221,P,22,15,24.9992,-80.4669,24,59.952,-80,28.014
FKNMS,9P6,22,Burr Fish,222,P,20,17,24.9992,-80.4669,24,59.952,-80,28.014
FKNMS,9P6,22,Burr Fish,223,P,22,15,24.9992,-80.4669,24,59.952,-80,28.014
FKNMS,9P6,22,Burr Fish,224,P,22,15,24.9992,-80.4669,24,59.952,-80,28.014
FKNMS,9D1,70,Carysfort Deep,701,OD,22,52,25.2208,-80.2099,25,13.248,-80,12.594
FKNMS,9D1,70,Carysfort Deep,702,OD,22,53,25.2208,-80.2099,25,13.248,-80,12.594
FKNMS,9D1,70,Carysfort Deep,703,OD,22,47,25.2227,-80.2087,25,13.362,-80,12.522
FKNMS,9D1,70,Carysfort Deep,704,OD,22,44,25.2227,-80.2087,25,13.362,-80,12.522
FKNMS,9S1,50,Carysfort Shallow,501,OS,22,6,25.2201,-80.2105,25,13.206,-80,12.63
FKNMS,9S1,50,Carysfort Shallow,502,OS,22,8,25.2208,-80.2107,25,13.248,-80,12.642
FKNMS,9S1,50,Carysfort Shallow,503,OS,22,8,25.2222,-80.2098,25,13.332,-80,12.588
FKNMS,9S1,50,Carysfort Shallow,504,OS,22,12,25.2222,-80.2098,25,13.332,-80,12.588
FKNMS,5P3,38,Cliff Green,381,P,25,26,24.5036,-81.7677,24,30.216,-81,46.062
FKNMS,5P3,38,Cliff Green,382,P,26,20,24.5036,-81.7677,24,30.216,-81,46.062
FKNMS,5P3,38,Cliff Green,383,P,21,22,24.5036,-81.7677,24,30.216,-81,46.062
FKNMS,5P3,38,Cliff Green,384,P,20,21,24.5036,-81.7677,24,30.216,-81,46.062
FKNMS,9D4,73,Conch Deep,731,OD,22,54,24.9519,-80.4513,24,57.114,-80,27.078
FKNMS,9D4,73,Conch Deep,732,OD,24,54,24.9519,-80.4513,24,57.114,-80,27.078
FKNMS,9D4,73,Conch Deep,733,OD,24,53,24.9519,-80.4513,24,57.114,-80,27.078
FKNMS,9D4,73,Conch Deep,734,OD,21,52,24.9519,-80.4513,24,57.114,-80,27.078
FKNMS,9S4,53,Conch Shallow,531,OS,22,18,24.9553,-80.458,24,57.318,-80,27.48
FKNMS,9S4,53,Conch Shallow,532,OS,21,16,24.9553,-80.458,24,57.318,-80,27.48
FKNMS,9S4,53,Conch Shallow,533,OS,22,16,24.9562,-80.4571,24,57.372,-80,27.426
FKNMS,9S4,53,Conch Shallow,534,OS,23,17,24.9562,-80.4571,24,57.372,-80,27.426
FKNMS,3H1,18,Content Keys,181,BCP,23,18,24.8221,-81.4889,24,49.326,-81,29.334
FKNMS,3H1,18,Content Keys,182,BCP,23,18,24.8221,-81.4889,24,49.326,-81,29.334
FKNMS,3H1,18,Content Keys,183,BCP,24,18,24.8221,-81.4889,24,49.326,-81,29.334
FKNMS,3H1,18,Content Keys,184,BCP,22,18,24.8221,-81.4889,24,49.326,-81,29.334
SECREMP,DC1,91,Dade County 1,911,1R,22,25,25.8422,-80.104,25,50.532,-80,6.24
SECREMP,DC1,91,Dade County 1,912,1R,22,25,25.8422,-80.104,25,50.532,-80,6.24
SECREMP,DC1,91,Dade County 1,913,1R,22,25,25.8422,-80.104,25,50.532,-80,6.24
SECREMP,DC1,91,Dade County 1,914,1R,22,25,25.8422,-80.104,25,50.532,-80,6.24
SECREMP,DC2,92,Dade County 2,921,2R,22,45,25.842,-80.0951,25,50.52,-80,5.706
SECREMP,DC2,92,Dade County 2,922,2R,22,45,25.842,-80.0951,25,50.52,-80,5.706
SECREMP,DC2,92,Dade County 2,923,2R,22,45,25.842,-80.0951,25,50.52,-80,5.706
SECREMP,DC2,92,Dade County 2,924,2R,22,45,25.842,-80.0951,25,50.52,-80,5.706
SECREMP,DC3,93,Dade County 3,931,3R,22,55,25.8421,-80.0881,25,50.526,-80,5.286
SECREMP,DC3,93,Dade County 3,932,3R,22,55,25.8421,-80.0881,25,50.526,-80,5.286
SECREMP,DC3,93,Dade County 3,933,3R,22,55,25.8421,-80.0881,25,50.526,-80,5.286
SECREMP,DC3,93,Dade County 3,934,3R,22,55,25.8421,-80.0881,25,50.526,-80,5.286
SECREMP,DC4,99,Dade County 4,991,2R,22,41,25.6726,-80.0884,25,40.356,-80,5.304
SECREMP,DC4,99,Dade County 4,992,2R,22,41,25.6726,-80.0884,25,40.356,-80,5.304
SECREMP,DC4,99,Dade County 4,993,2R,22,41,25.6726,-80.0884,25,40.356,-80,5.304
SECREMP,DC4,99,Dade County 4,994,2R,22,41,25.6726,-80.0884,25,40.356,-80,5.304
SECREMP,DC5,0,Dade County 5,1,1R,22,24,25.6518,-80.0946,25,39.108,-80,5.676
SECREMP,DC5,0,Dade County 5,2,1R,22,24,25.6518,-80.0946,25,39.108,-80,5.676
SECREMP,DC5,0,Dade County 5,3,1R,22,24,25.6518,-80.0946,25,39.108,-80,5.676
SECREMP,DC5,0,Dade County 5,4,1R,22,24,25.6518,-80.0946,25,39.108,-80,5.676
SECREMP,DC6,4,Dade County 6,41,NS,22,20,25.9516,-80.1091,25,57.096,-80,6.546
SECREMP,DC6,4,Dade County 6,42,NS,22,20,25.9516,-80.1091,25,57.096,-80,6.546
SECREMP,DC6,4,Dade County 6,43,NS,22,20,25.9516,-80.1091,25,57.096,-80,6.546
SECREMP,DC6,4,Dade County 6,44,NS,22,20,25.9516,-80.1091,25,57.096,-80,6.546
SECREMP,DC7,5,Dade County 7,51,3R,22,60,25.9585,-80.0938,25,57.51,-80,5.628
SECREMP,DC7,5,Dade County 7,52,3R,22,60,25.9585,-80.0938,25,57.51,-80,5.628
SECREMP,DC7,5,Dade County 7,53,3R,22,60,25.9585,-80.0938,25,57.51,-80,5.628
SECREMP,DC7,5,Dade County 7,54,3R,22,60,25.9585,-80.0938,25,57.51,-80,5.628
SECREMP,DC8,6,Dade County 8,61,NS,22,15,25.6785,-80.1186,25,40.71,-80,7.116
SECREMP,DC8,6,Dade County 8,62,NS,22,15,25.6785,-80.1186,25,40.71,-80,7.116
SECREMP,DC8,6,Dade County 8,63,NS,22,15,25.6785,-80.1186,25,40.71,-80,7.116
SECREMP,DC8,6,Dade County 8,64,NS,22,15,25.6785,-80.1186,25,40.71,-80,7.116
NPSDT,1PB,28,Davis Rock,281,P,24,33,24.6871,-82.9072,24,41.226,-82,54.432
NPSDT,1PB,28,Davis Rock,282,P,20,29,24.6871,-82.9072,24,41.226,-82,54.432
NPSDT,1PB,28,Davis Rock,283,P,24,28,24.6871,-82.9072,24,41.226,-82,54.432
NPSDT,1PB,28,Davis Rock,284,P,20,30,24.6871,-82.9072,24,41.226,-82,54.432
FKNMS,9H3,12,Dove Key,121,HB,22,8,25.0447,-80.4684,25,2.682,-80,28.104
FKNMS,9H3,12,Dove Key,122,HB,22,8,25.0447,-80.4684,25,2.682,-80,28.104
FKNMS,9H3,12,Dove Key,123,HB,22,8,25.0447,-80.4684,25,2.682,-80,28.104
FKNMS,9H3,12,Dove Key,124,HB,22,8,25.0447,-80.4684,25,2.682,-80,28.104
FKNMS,7P2,35,Dustan Rocks,351,P,22,14,24.6895,-81.0302,24,41.37,-81,1.812
FKNMS,7P2,35,Dustan Rocks,352,P,22,15,24.6895,-81.0302,24,41.37,-81,1.812
FKNMS,7P2,35,Dustan Rocks,353,P,22,17,24.6895,-81.0302,24,41.37,-81,1.812
FKNMS,7P2,35,Dustan Rocks,354,P,22,21,24.6895,-81.0302,24,41.37,-81,1.812
FKNMS,5D3,78,Eastern Sambo Deep,781,OD,26,48,24.4884,-81.6659,24,29.304,-81,39.954
FKNMS,5D3,78,Eastern Sambo Deep,782,OD,22,48,24.4884,-81.6659,24,29.304,-81,39.954
FKNMS,5D3,78,Eastern Sambo Deep,783,OD,22,48,24.4884,-81.6659,24,29.304,-81,39.954
FKNMS,5D3,78,Eastern Sambo Deep,784,OD,23,46,24.4884,-81.6659,24,29.304,-81,39.954
FKNMS,5S3,58,Eastern Sambo Shallow,581,OS,24,8,24.4917,-81.663565,24,29.502,-81,39.8139
FKNMS,5S3,58,Eastern Sambo Shallow,582,OS,22,9,24.4917,-81.663565,24,29.502,-81,39.8139
FKNMS,5S3,58,Eastern Sambo Shallow,583,OS,24,5,24.4917,-81.663565,24,29.502,-81,39.8139
FKNMS,5S3,58,Eastern Sambo Shallow,584,OS,23,9,24.4917,-81.663565,24,29.502,-81,39.8139
FKNMS,9H2,11,El Radabob,111,HB,22,9,25.1201,-80.3782,25,7.206,-80,22.692
FKNMS,9H2,11,El Radabob,112,HB,22,9,25.1201,-80.3782,25,7.206,-80,22.692
FKNMS,9H2,11,El Radabob,113,HB,22,9,25.1201,-80.3782,25,7.206,-80,22.692
FKNMS,9H2,11,El Radabob,114,HB,22,9,25.1201,-80.3782,25,7.206,-80,22.692
FKNMS,9S2,51,Grecian Rocks,511,OS,23,11,25.1075,-80.3068,25,6.45,-80,18.408
FKNMS,9S2,51,Grecian Rocks,512,OS,23,11,25.1075,-80.3068,25,6.45,-80,18.408
FKNMS,9S2,51,Grecian Rocks,513,OS,22,21,25.1075,-80.3069,25,6.45,-80,18.414
FKNMS,9S2,51,Grecian Rocks,514,OS,23,14,25.1075,-80.3069,25,6.45,-80,18.414
FKNMS,5P4,40,Jaap Reef,401,P,24,9,24.5857,-81.5826,24,35.142,-81,34.956
FKNMS,5P4,40,Jaap Reef,402,P,22,9,24.5857,-81.5826,24,35.142,-81,34.956
FKNMS,5P4,40,Jaap Reef,403,P,25,6,24.5857,-81.5826,24,35.142,-81,34.956
FKNMS,5P4,40,Jaap Reef,404,P,22,9,24.5857,-81.5826,24,35.142,-81,34.956
NPSDT,1P7,47,Little Africa,471,P,-,2,24.635,-82.919,24,38.1,-82,55.14
NPSDT,1P6,46,Loggerhead Patch,461,P,22,7,24.635,-82.9163,24,38.1,-82,54.978
NPSDT,1P6,46,Loggerhead Patch,462,P,22,6,24.635,-82.9163,24,38.1,-82,54.978
FKNMS,7H2,14,Long Key,141,HB,22,12,24.7972,-80.784,24,47.832,-80,47.04
FKNMS,7H2,14,Long Key,142,HB,22,12,24.7972,-80.784,24,47.832,-80,47.04
FKNMS,7H2,14,Long Key,143,HB,22,12,24.7972,-80.784,24,47.832,-80,47.04
FKNMS,7H2,14,Long Key,144,HB,22,12,24.7972,-80.784,24,47.832,-80,47.04
FKNMS,5D2,77,Looe Key Deep,771,OD,23,41,24.5421,-81.4153,24,32.526,-81,24.918
FKNMS,5D2,77,Looe Key Deep,772,OD,22,41,24.5421,-81.4153,24,32.526,-81,24.918
FKNMS,5D2,77,Looe Key Deep,773,OD,22,41,24.5426,-81.4128,24,32.556,-81,24.768
FKNMS,5D2,77,Looe Key Deep,774,OD,21,41,24.5426,-81.4128,24,32.556,-81,24.768
FKNMS,5S2,57,Looe Key Shallow,571,OS,21,24,24.5453,-81.4079,24,32.718,-81,24.474
FKNMS,5S2,57,Looe Key Shallow,572,OS,23,24,24.5452,-81.4071,24,32.712,-81,24.426
FKNMS,5S2,57,Looe Key Shallow,573,OS,22,22,24.5453,-81.4063,24,32.718,-81,24.378
FKNMS,5S2,57,Looe Key Shallow,574,OS,22,25,24.5453,-81.4063,24,32.718,-81,24.378
SECREMP,MC1,94,Martin County 1,941,NS,22,15,27.1317,-80.134,27,7.902,-80,8.04
SECREMP,MC1,94,Martin County 1,942,NS,22,15,27.1317,-80.134,27,7.902,-80,8.04
SECREMP,MC1,94,Martin County 1,943,NS,22,15,27.1317,-80.134,27,7.902,-80,8.04
SECREMP,MC1,94,Martin County 1,944,NS,22,15,27.1317,-80.134,27,7.902,-80,8.04
SECREMP,MC2,95,Martin County 2,951,NS,22,15,27.112,-80.1254,27,6.72,-80,7.524
SECREMP,MC2,95,Martin County 2,952,NS,22,15,27.112,-80.1254,27,6.72,-80,7.524
SECREMP,MC2,95,Martin County 2,953,NS,22,15,27.112,-80.1254,27,6.72,-80,7.524
SECREMP,MC2,95,Martin County 2,954,NS,22,15,27.112,-80.1254,27,6.72,-80,7.524
SECREMP,MC3,96,Martin County 3,961,FT,22,15,27.1206,-80.12721667,27,7.236,-80,7.633
NPSDT,1P5,45,Mayer's Peak,451,P,21,31,24.608,-82.944,24,36.48,-82,56.64
NPSDT,1P5,45,Mayer's Peak,452,P,21,32,24.608,-82.944,24,36.48,-82,56.64
NPSDT,1P5,45,Mayer's Peak,453,P,22,30,24.608,-82.944,24,36.48,-82,56.64
NPSDT,1P5,45,Mayer's Peak,454,P,19,29,24.608,-82.944,24,36.48,-82,56.64
FKNMS,9D3,72,Molasses Deep,721,OD,22,44,25.0072,-80.3756,25,0.432,-80,22.536
FKNMS,9D3,72,Molasses Deep,722,OD,22,44,25.0072,-80.3756,25,0.432,-80,22.536
FKNMS,9D3,72,Molasses Deep,723,OD,22,47,25.0073,-80.3743,25,0.438,-80,22.458
FKNMS,9D3,72,Molasses Deep,724,OD,23,49,25.0073,-80.3743,25,0.438,-80,22.458
FKNMS,5H2,16,Molasses Keys,161,HB,22,14,24.6756,-81.1905,24,40.536,-81,11.43
FKNMS,5H2,16,Molasses Keys,162,HB,22,14,24.6756,-81.1905,24,40.536,-81,11.43
FKNMS,5H2,16,Molasses Keys,163,HB,22,14,24.6756,-81.1905,24,40.536,-81,11.43
FKNMS,5H2,16,Molasses Keys,164,HB,22,14,24.6756,-81.1905,24,40.536,-81,11.43
FKNMS,9S3,52,Molasses Shallow,521,OS,23,19,25.0088,-80.3765,25,0.528,-80,22.59
FKNMS,9S3,52,Molasses Shallow,522,OS,22,22,25.0091,-80.375,25,0.546,-80,22.5
FKNMS,9S3,52,Molasses Shallow,523,OS,21,23,25.0088,-80.3744,25,0.528,-80,22.464
FKNMS,9S3,52,Molasses Shallow,524,OS,23,28,25.0097,-80.3745,25,0.582,-80,22.47
FKNMS,5H1,15,Moser Channel,151,HB,22,12,24.6891,-81.1676,24,41.346,-81,10.056
FKNMS,5H1,15,Moser Channel,152,HB,22,12,24.6891,-81.1676,24,41.346,-81,10.056
FKNMS,5H1,15,Moser Channel,153,HB,22,12,24.6891,-81.1676,24,41.346,-81,10.056
FKNMS,5H1,15,Moser Channel,154,HB,22,12,24.6891,-81.1676,24,41.346,-81,10.056
SECREMP,PB1,84,Palm Beach 1,841,1R,22,25,26.7097,-80.0286,26,42.582,-80,1.716
SECREMP,PB1,84,Palm Beach 1,842,1R,22,25,26.7097,-80.0286,26,42.582,-80,1.716
SECREMP,PB1,84,Palm Beach 1,843,1R,22,25,26.7097,-80.0286,26,42.582,-80,1.716
SECREMP,PB1,84,Palm Beach 1,844,1R,22,25,26.7097,-80.0286,26,42.582,-80,1.716
SECREMP,PB2,85,Palm Beach 2,851,2R,22,55,26.6785,-80.0182,26,40.71,-80,1.092
SECREMP,PB2,85,Palm Beach 2,852,2R,22,55,26.6785,-80.0182,26,40.71,-80,1.092
SECREMP,PB2,85,Palm Beach 2,853,2R,22,55,26.6785,-80.0182,26,40.71,-80,1.092
SECREMP,PB2,85,Palm Beach 2,854,2R,22,55,26.6785,-80.0182,26,40.71,-80,1.092
SECREMP,PB3,86,Palm Beach 3,861,3R,22,55,26.7104,-80.0158,26,42.624,-80,0.948
SECREMP,PB3,86,Palm Beach 3,862,3R,22,55,26.7104,-80.0158,26,42.624,-80,0.948
SECREMP,PB3,86,Palm Beach 3,863,3R,22,55,26.7104,-80.0158,26,42.624,-80,0.948
SECREMP,PB3,86,Palm Beach 3,864,3R,22,55,26.7104,-80.0158,26,42.624,-80,0.948
SECREMP,PB4,97,Palm Beach 4,971,3R,22,55,26.4878,-80.03908333,26,29.268,-80,2.345
SECREMP,PB4,97,Palm Beach 4,972,3R,22,55,26.4878,-80.03908333,26,29.268,-80,2.345
SECREMP,PB4,97,Palm Beach 4,973,3R,22,55,26.4878,-80.03908333,26,29.268,-80,2.345
SECREMP,PB4,97,Palm Beach 4,974,3R,22,55,26.4878,-80.03908333,26,29.268,-80,2.345
SECREMP,PB5,98,Palm Beach 5,981,3R,22,55,26.4417,-80.04743333,26,26.502,-80,2.846
SECREMP,PB5,98,Palm Beach 5,982,3R,22,55,26.4417,-80.04743333,26,26.502,-80,2.846
SECREMP,PB5,98,Palm Beach 5,983,3R,22,55,26.4417,-80.04743333,26,26.502,-80,2.846
SECREMP,PB5,98,Palm Beach 5,984,3R,22,55,26.4417,-80.04743333,26,26.502,-80,2.846
NPSDT,1P2,42,Palmata Patch,421,P,20,9,24.6207,-82.8673,24,37.242,-82,52.038
NPSDT,1P2,42,Palmata Patch,422,P,25,9,24.6207,-82.8673,24,37.242,-82,52.038
FKNMS,9P3,32,Porter Patch,321,P,24,15,25.1032,-80.3243,25,6.192,-80,19.458
FKNMS,9P3,32,Porter Patch,322,P,23,14,25.1032,-80.3243,25,6.192,-80,19.458
FKNMS,9P3,32,Porter Patch,323,P,23,16,25.1032,-80.3243,25,6.192,-80,19.458
FKNMS,9P3,32,Porter Patch,324,P,25,17,25.1032,-80.3243,25,6.192,-80,19.458
NPSDT,1P3,43,Prolifera Patch,431,P,18,7,24.6206,-82.8696,24,37.236,-82,52.176
NPSDT,1P3,43,Prolifera Patch,432,P,22,5,24.6206,-82.8696,24,37.236,-82,52.176
NPSDT,1P3,43,Prolifera Patch,433,P,21,7,24.6206,-82.8696,24,37.236,-82,52.176
FKNMS,9H1,10,Rattlesnake,101,HB,23,6,25.1736,-80.3475,25,10.416,-80,20.85
FKNMS,9H1,10,Rattlesnake,102,HB,22,6,25.1736,-80.3475,25,10.416,-80,20.85
FKNMS,9H1,10,Rattlesnake,103,HB,23,6,25.1736,-80.3475,25,10.416,-80,20.85
FKNMS,9H1,10,Rattlesnake,104,HB,25,6,25.1736,-80.3475,25,10.416,-80,20.85
FKNMS,7P3,23,Rawa Reef,231,P,24,20,24.7176,-80.9357,24,43.056,-80,56.142
FKNMS,7P3,23,Rawa Reef,232,P,24,22,24.7176,-80.9357,24,43.056,-80,56.142
FKNMS,7P3,23,Rawa Reef,233,P,22,20,24.7176,-80.9357,24,43.056,-80,56.142
FKNMS,7P3,23,Rawa Reef,234,P,21,22,24.7176,-80.9357,24,43.056,-80,56.142
FKNMS,5P6,26,Red Dun Reef,261,P,21,22,24.5209,-81.6621,24,31.254,-81,39.726
FKNMS,5P6,26,Red Dun Reef,262,P,24,23,24.5209,-81.6621,24,31.254,-81,39.726
FKNMS,5P6,26,Red Dun Reef,263,P,24,22,24.5209,-81.6621,24,31.254,-81,39.726
FKNMS,5P6,26,Red Dun Reef,264,P,19,23,24.5209,-81.6621,24,31.254,-81,39.726
FKNMS,5D5,80,Rock Key Deep,801,OD,22,42,24.4532,-81.8568,24,27.192,-81,51.408
FKNMS,5D5,80,Rock Key Deep,802,OD,22,40,24.4532,-81.8568,24,27.192,-81,51.408
FKNMS,5D5,80,Rock Key Deep,803,OD,23,40,24.4532,-81.8568,24,27.192,-81,51.408
FKNMS,5D5,80,Rock Key Deep,804,OD,21,40,24.4532,-81.8568,24,27.192,-81,51.408
FKNMS,5S5,60,Rock Key Shallow,601,OS,23,15,24.4545,-81.8589,24,27.27,-81,51.534
FKNMS,5S5,60,Rock Key Shallow,602,OS,23,16,24.4545,-81.8589,24,27.27,-81,51.534
FKNMS,5S5,60,Rock Key Shallow,603,OS,21,17,24.4545,-81.8589,24,27.27,-81,51.534
FKNMS,5S5,60,Rock Key Shallow,604,OS,22,9,24.4548,-81.857,24,27.288,-81,51.42
FKNMS,2D1,81,Sand Key Deep,811,OD,22,35,24.4517,-81.8798,24,27.102,-81,52.788
FKNMS,2D1,81,Sand Key Deep,812,OD,22,34,24.4517,-81.8798,24,27.102,-81,52.788
FKNMS,2D1,81,Sand Key Deep,813,OD,22,33,24.4517,-81.8798,24,27.102,-81,52.788
FKNMS,2D1,81,Sand Key Deep,814,OD,22,30,24.4517,-81.8798,24,27.102,-81,52.788
FKNMS,2S1,61,Sand Key Shallow,611,OS,22,21,24.452,-81.8775,24,27.12,-81,52.65
FKNMS,2S1,61,Sand Key Shallow,612,OS,22,18,24.452,-81.8775,24,27.12,-81,52.65
FKNMS,2S1,61,Sand Key Shallow,613,OS,22,18,24.452,-81.8775,24,27.12,-81,52.65
FKNMS,2S1,61,Sand Key Shallow,614,OS,21,21,24.452,-81.8775,24,27.12,-81,52.65
FKNMS,2P1,39,Smith Shoal,391,BCP,25,26,24.7197,-81.9195,24,43.182,-81,55.17
FKNMS,2P1,39,Smith Shoal,392,BCP,25,26,24.7197,-81.9195,24,43.182,-81,55.17
FKNMS,2P1,39,Smith Shoal,393,BCP,20,25,24.7197,-81.9195,24,43.182,-81,55.17
FKNMS,2P1,39,Smith Shoal,394,BCP,23,21,24.7197,-81.9195,24,43.182,-81,55.17
FKNMS,5D1,76,Sombrero Deep,761,OD,20,50,24.6223,-81.112,24,37.338,-81,6.72
FKNMS,5D1,76,Sombrero Deep,762,OD,20,45,24.6223,-81.112,24,37.338,-81,6.72
FKNMS,5D1,76,Sombrero Deep,763,OD,20,47,24.6231,-81.1105,24,37.386,-81,6.63
FKNMS,5D1,76,Sombrero Deep,764,OD,20,48,24.6231,-81.1105,24,37.386,-81,6.63
FKNMS,5S1,56,Sombrero Shallow,561,OS,20,17,24.6253,-81.1116,24,37.518,-81,6.696
FKNMS,5S1,56,Sombrero Shallow,562,OS,20,17,24.6269,-81.1092,24,37.614,-81,6.552
FKNMS,5S1,56,Sombrero Shallow,563,OS,20,20,24.6258,-81.1092,24,37.548,-81,6.552
FKNMS,5S1,56,Sombrero Shallow,564,OS,20,9,24.6255,-81.1104,24,37.53,-81,6.624
NPSDT,1P4,44,Temptation Rock,441,P,20,23,24.6431,-82.9307,24,38.586,-82,55.842
NPSDT,1P4,44,Temptation Rock,442,P,21,22,24.6431,-82.9307,24,38.586,-82,55.842
NPSDT,1P4,44,Temptation Rock,443,P,23,21,24.6431,-82.9307,24,38.586,-82,55.842
NPSDT,1P4,44,Temptation Rock,444,P,22,28,24.6431,-82.9307,24,38.586,-82,55.842
FKNMS,7D2,75,Tennessee Deep,751,OD,23,44,24.7527,-80.7578,24,45.162,-80,45.468
FKNMS,7D2,75,Tennessee Deep,752,OD,23,44,24.7527,-80.7578,24,45.162,-80,45.468
FKNMS,7D2,75,Tennessee Deep,753,OD,22,44,24.7527,-80.7578,24,45.162,-80,45.468
FKNMS,7D2,75,Tennessee Deep,754,OD,23,43,24.7527,-80.7578,24,45.162,-80,45.468
FKNMS,7S2,55,Tennessee Shallow,551,OS,24,21,24.745,-80.7812,24,44.7,-80,46.872
FKNMS,7S2,55,Tennessee Shallow,552,OS,23,21,24.745,-80.7812,24,44.7,-80,46.872
FKNMS,7S2,55,Tennessee Shallow,553,OS,23,21,24.745,-80.7812,24,44.7,-80,46.872
FKNMS,7S2,55,Tennessee Shallow,554,OS,22,21,24.745,-80.7812,24,44.7,-80,46.872
NPSDT,1PC,29,Texas Rock,291,P,19,34,24.6805,-82.8853,24,40.83,-82,53.118
NPSDT,1PC,29,Texas Rock,292,P,23,46,24.6805,-82.8853,24,40.83,-82,53.118
NPSDT,1PC,29,Texas Rock,293,P,19,50,24.6805,-82.8853,24,40.83,-82,53.118
NPSDT,1PC,29,Texas Rock,294,P,27,44,24.6805,-82.8853,24,40.83,-82,53.118
NPSDT,1PA,27,The Maze,271,P,21,42,24.609,-82.9496,24,36.54,-82,56.976
NPSDT,1PA,27,The Maze,272,P,23,38,24.609,-82.9496,24,36.54,-82,56.976
NPSDT,1PA,27,The Maze,273,P,24,41,24.609,-82.9496,24,36.54,-82,56.976
NPSDT,1PA,27,The Maze,274,P,23,30,24.609,-82.9496,24,36.54,-82,56.976
FKNMS,7P4,24,Thor,241,P,23,18,24.6715,-81.0506,24,40.29,-81,3.036
FKNMS,7P4,24,Thor,242,P,19,21,24.6715,-81.0506,24,40.29,-81,3.036
FKNMS,7P4,24,Thor,243,P,19,21,24.6715,-81.0506,24,40.29,-81,3.036
FKNMS,7P4,24,Thor,244,P,21,18,24.6715,-81.0506,24,40.29,-81,3.036
FKNMS,9P1,30,Turtle,301,P,22,13,25.2947,-80.2191,25,17.682,-80,13.146
FKNMS,9P1,30,Turtle,302,P,22,18,25.2947,-80.2191,25,17.682,-80,13.146
FKNMS,9P1,30,Turtle,303,P,22,23,25.2953,-80.2174,25,17.718,-80,13.044
FKNMS,9P1,30,Turtle,304,P,23,22,25.2953,-80.2174,25,17.718,-80,13.044
FKNMS,9P5,21,Two Patches,211,P,21,8,25.0219,-80.439,25,1.314,-80,26.34
FKNMS,9P5,21,Two Patches,212,P,21,9,25.0219,-80.439,25,1.314,-80,26.34
FKNMS,9P5,21,Two Patches,213,P,23,7,25.0219,-80.439,25,1.314,-80,26.34
FKNMS,9P5,21,Two Patches,214,P,23,8,25.0219,-80.439,25,1.314,-80,26.34
FKNMS,7P1,34,West Turtle Shoal,341,P,22,22,24.6993,-80.9669,24,41.958,-80,58.014
FKNMS,7P1,34,West Turtle Shoal,342,P,22,22,24.6993,-80.9669,24,41.958,-80,58.014
FKNMS,7P1,34,West Turtle Shoal,343,P,22,24,24.6993,-80.9669,24,41.958,-80,58.014
FKNMS,7P1,34,West Turtle Shoal,344,P,22,22,24.6993,-80.9669,24,41.958,-80,58.014
FKNMS,5P1,36,West Washer Women,361,P,22,23,24.5475,-81.5866,24,32.85,-81,35.196
FKNMS,5P1,36,West Washer Women,362,P,23,25,24.5475,-81.5866,24,32.85,-81,35.196
FKNMS,5P1,36,West Washer Women,363,P,23,24,24.5475,-81.5866,24,32.85,-81,35.196
FKNMS,5P1,36,West Washer Women,364,P,21,22,24.5475,-81.5866,24,32.85,-81,35.196
FKNMS,5P2,37,Western Head,371,P,19,34,24.4977,-81.8056,24,29.862,-81,48.336
FKNMS,5P2,37,Western Head,372,P,22,35,24.4977,-81.8056,24,29.862,-81,48.336
FKNMS,5P2,37,Western Head,373,P,22,29,24.4977,-81.8056,24,29.862,-81,48.336
FKNMS,5P2,37,Western Head,374,P,23,26,24.4977,-81.8056,24,29.862,-81,48.336
FKNMS,5D4,79,Western Sambo Deep,791,OD,22,40,24.478,-81.7171,24,28.68,-81,43.026
FKNMS,5D4,79,Western Sambo Deep,792,OD,20,40,24.478,-81.7171,24,28.68,-81,43.026
FKNMS,5D4,79,Western Sambo Deep,793,OD,26,27,24.4796,-81.7142,24,28.776,-81,42.852
FKNMS,5D4,79,Western Sambo Deep,794,OD,22,29,24.4796,-81.7142,24,28.776,-81,42.852
FKNMS,5S4,59,Western Sambo Shallow,591,OS,22,14,24.4796,-81.7176,24,28.776,-81,43.056
FKNMS,5S4,59,Western Sambo Shallow,592,OS,24,17,24.4796,-81.7176,24,28.776,-81,43.056
FKNMS,5S4,59,Western Sambo Shallow,593,OS,24,9,24.4798,-81.7158,24,28.788,-81,42.948
FKNMS,5S4,59,Western Sambo Shallow,594,OS,21,9,24.4798,-81.7158,24,28.788,-81,42.948
NPSDT/FKNMS,1P1,41,White Shoal,411,P,23,29,24.6414,-82.8962,24,38.484,-82,53.772
NPSDT/FKNMS,1P1,41,White Shoal,412,P,23,24,24.6414,-82.8962,24,38.484,-82,53.772
NPSDT/FKNMS,1P1,41,White Shoal,413,P,22,18,24.6414,-82.8962,24,38.484,-82,53.772
NPSDT/FKNMS,1P1,41,White Shoal,414,P,23,15,24.6423,-82.8971,24,38.538,-82,53.826
FKNMS,5P5,25,Wonderland,251,P,23,21,24.5603,-81.5021,24,33.618,-81,30.126
FKNMS,5P5,25,Wonderland,252,P,21,18,24.5603,-81.5021,24,33.618,-81,30.126
FKNMS,5P5,25,Wonderland,253,P,23,18,24.5603,-81.5021,24,33.618,-81,30.126
FKNMS,5P5,25,Wonderland,254,P,23,18,24.5603,-81.5021,24,33.618,-81,30.126
